[{"OBJECT_NAME":"ONEWEB-0375","OBJECT_ID":"2021-090Y","EPOCH":"2026-03-08T02:47:12.960672","MEAN_MOTION":13.2077228,"ECCENTRICITY":0.0001363,"INCLINATION":87.9174,"RA_OF_ASC_NODE":294.6138,"ARG_OF_PERICENTER":65.2468,"MEAN_ANOMALY":294.8807,"EPHEMERIS_TYPE":0,"CLASSIFICATION_TYPE":"U","NORAD_CAT_ID":49301,"ELEMENT_SET_NO":999,"REV_AT_EPOCH":21718,"BSTAR":0.00038367,"MEAN_MOTION_DOT":1.69e-6,"MEAN_MOTION_DDOT":0},{"OBJECT_NAME":"ONEWEB-0376","OBJECT_ID":"2021-090Z","EPOCH":"2026-03-08T02:59:15.840096","MEAN_MOTION":13.19726479,"ECCENTRICITY":0.000177,"INCLINATION":87.9243,"RA_OF_ASC_NODE":325.0941,"ARG_OF_PERICENTER":86.7274,"MEAN_ANOMALY":273.4061,"EPHEMERIS_TYPE":0,"CLASSIFICATION_TYPE":"U","NORAD_CAT_ID":49302,"ELEMENT_SET_NO":999,"REV_AT_EPOCH":21312,"BSTAR":0.00066295,"MEAN_MOTION_DOT":2.78e-6,"MEAN_MOTION_DDOT":0},{"OBJECT_NAME":"ONEWEB-0377","OBJECT_ID":"2021-090AA","EPOCH":"2026-03-08T02:26:56.651712","MEAN_MOTION":13.20770538,"ECCENTRICITY":0.0001714,"INCLINATION":87.917,"RA_OF_ASC_NODE":294.6186,"ARG_OF_PERICENTER":79.4771,"MEAN_ANOMALY":280.6555,"EPHEMERIS_TYPE":0,"CLASSIFICATION_TYPE":"U","NORAD_CAT_ID":49303,"ELEMENT_SET_NO":999,"REV_AT_EPOCH":21717,"BSTAR":0.00025898,"MEAN_MOTION_DOT":1.18e-6,"MEAN_MOTION_DDOT":0},{"OBJECT_NAME":"ONEWEB-0378","OBJECT_ID":"2021-090AB","EPOCH":"2026-03-08T02:58:45.072192","MEAN_MOTION":13.2077087,"ECCENTRICITY":0.0001512,"INCLINATION":87.9163,"RA_OF_ASC_NODE":294.6252,"ARG_OF_PERICENTER":81.8446,"MEAN_ANOMALY":278.2859,"EPHEMERIS_TYPE":0,"CLASSIFICATION_TYPE":"U","NORAD_CAT_ID":49304,"ELEMENT_SET_NO":999,"REV_AT_EPOCH":21644,"BSTAR":-0.00015729,"MEAN_MOTION_DOT":-5.1e-7,"MEAN_MOTION_DDOT":0},{"OBJECT_NAME":"ONEWEB-0379","OBJECT_ID":"2021-090AC","EPOCH":"2026-03-08T02:32:09.792960","MEAN_MOTION":13.1450315,"ECCENTRICITY":0.0001499,"INCLINATION":87.8988,"RA_OF_ASC_NODE":309.8759,"ARG_OF_PERICENTER":80.8562,"MEAN_ANOMALY":279.2737,"EPHEMERIS_TYPE":0,"CLASSIFICATION_TYPE":"U","NORAD_CAT_ID":49305,"ELEMENT_SET_NO":999,"REV_AT_EPOCH":21428,"BSTAR":0.00036911,"MEAN_MOTION_DOT":1.5e-6,"MEAN_MOTION_DDOT":0},{"OBJECT_NAME":"ONEWEB-0380","OBJECT_ID":"2021-090AD","EPOCH":"2026-03-08T02:54:42.996672","MEAN_MOTION":13.19726961,"ECCENTRICITY":0.0001722,"INCLINATION":87.9231,"RA_OF_ASC_NODE":325.1103,"ARG_OF_PERICENTER":71.8719,"MEAN_ANOMALY":288.2601,"EPHEMERIS_TYPE":0,"CLASSIFICATION_TYPE":"U","NORAD_CAT_ID":49306,"ELEMENT_SET_NO":999,"REV_AT_EPOCH":21309,"BSTAR":0.00021073,"MEAN_MOTION_DOT":9.7e-7,"MEAN_MOTION_DDOT":0},{"OBJECT_NAME":"ONEWEB-0381","OBJECT_ID":"2021-090AE","EPOCH":"2026-03-08T02:22:11.648352","MEAN_MOTION":13.20769833,"ECCENTRICITY":0.0001407,"INCLINATION":87.9171,"RA_OF_ASC_NODE":294.6231,"ARG_OF_PERICENTER":78.1654,"MEAN_ANOMALY":281.9637,"EPHEMERIS_TYPE":0,"CLASSIFICATION_TYPE":"U","NORAD_CAT_ID":49307,"ELEMENT_SET_NO":999,"REV_AT_EPOCH":21648,"BSTAR":0.000287,"MEAN_MOTION_DOT":1.3e-6,"MEAN_MOTION_DDOT":0},{"OBJECT_NAME":"ONEWEB-0382","OBJECT_ID":"2021-090AF","EPOCH":"2026-03-08T02:04:00.448320","MEAN_MOTION":13.20773281,"ECCENTRICITY":0.0001317,"INCLINATION":87.9172,"RA_OF_ASC_NODE":294.622,"ARG_OF_PERICENTER":79.5096,"MEAN_ANOMALY":280.6185,"EPHEMERIS_TYPE":0,"CLASSIFICATION_TYPE":"U","NORAD_CAT_ID":49308,"ELEMENT_SET_NO":999,"REV_AT_EPOCH":21647,"BSTAR":0.0001627,"MEAN_MOTION_DOT":7.9e-7,"MEAN_MOTION_DDOT":0},{"OBJECT_NAME":"ONEWEB-0383","OBJECT_ID":"2021-090AG","EPOCH":"2026-03-08T02:23:01.366368","MEAN_MOTION":13.14502375,"ECCENTRICITY":0.0001443,"INCLINATION":87.899,"RA_OF_ASC_NODE":309.8632,"ARG_OF_PERICENTER":81.5147,"MEAN_ANOMALY":278.6146,"EPHEMERIS_TYPE":0,"CLASSIFICATION_TYPE":"U","NORAD_CAT_ID":49309,"ELEMENT_SET_NO":999,"REV_AT_EPOCH":21431,"BSTAR":-1.4014e-5,"MEAN_MOTION_DOT":8.0e-8,"MEAN_MOTION_DDOT":0},{"OBJECT_NAME":"ONEWEB-0384","OBJECT_ID":"2021-090AH","EPOCH":"2026-03-08T03:40:41.877408","MEAN_MOTION":13.20807142,"ECCENTRICITY":0.0001071,"INCLINATION":87.9177,"RA_OF_ASC_NODE":294.6513,"ARG_OF_PERICENTER":80.1636,"MEAN_ANOMALY":279.9618,"EPHEMERIS_TYPE":0,"CLASSIFICATION_TYPE":"U","NORAD_CAT_ID":49310,"ELEMENT_SET_NO":999,"REV_AT_EPOCH":21649,"BSTAR":-4.4869e-6,"MEAN_MOTION_DOT":1.1e-7,"MEAN_MOTION_DDOT":0},{"OBJECT_NAME":"ONEWEB-0385","OBJECT_ID":"2021-090AJ","EPOCH":"2026-03-08T03:41:45.846240","MEAN_MOTION":13.20772524,"ECCENTRICITY":0.0001449,"INCLINATION":87.9172,"RA_OF_ASC_NODE":294.6128,"ARG_OF_PERICENTER":80.1024,"MEAN_ANOMALY":280.0273,"EPHEMERIS_TYPE":0,"CLASSIFICATION_TYPE":"U","NORAD_CAT_ID":49311,"ELEMENT_SET_NO":999,"REV_AT_EPOCH":21646,"BSTAR":-4.8813e-5,"MEAN_MOTION_DOT":-7.0e-8,"MEAN_MOTION_DDOT":0},{"OBJECT_NAME":"ONEWEB-0386","OBJECT_ID":"2021-090AK","EPOCH":"2026-03-08T02:17:39.609312","MEAN_MOTION":13.20770576,"ECCENTRICITY":0.0001346,"INCLINATION":87.9175,"RA_OF_ASC_NODE":294.6093,"ARG_OF_PERICENTER":82.9986,"MEAN_ANOMALY":277.13,"EPHEMERIS_TYPE":0,"CLASSIFICATION_TYPE":"U","NORAD_CAT_ID":49312,"ELEMENT_SET_NO":999,"REV_AT_EPOCH":21647,"BSTAR":0.00028974,"MEAN_MOTION_DOT":1.31e-6,"MEAN_MOTION_DDOT":0},{"OBJECT_NAME":"ONEWEB-0387","OBJECT_ID":"2021-090AL","EPOCH":"2026-03-08T03:44:00.542112","MEAN_MOTION":13.20773746,"ECCENTRICITY":0.0001567,"INCLINATION":87.9163,"RA_OF_ASC_NODE":294.6345,"ARG_OF_PERICENTER":77.2222,"MEAN_ANOMALY":282.9087,"EPHEMERIS_TYPE":0,"CLASSIFICATION_TYPE":"U","NORAD_CAT_ID":49313,"ELEMENT_SET_NO":999,"REV_AT_EPOCH":21648,"BSTAR":2.6953e-5,"MEAN_MOTION_DOT":2.4e-7,"MEAN_MOTION_DDOT":0},{"OBJECT_NAME":"ONEWEB-0388","OBJECT_ID":"2021-090AM","EPOCH":"2026-03-08T02:47:53.316384","MEAN_MOTION":13.19727219,"ECCENTRICITY":0.0001569,"INCLINATION":87.9232,"RA_OF_ASC_NODE":325.1075,"ARG_OF_PERICENTER":76.8397,"MEAN_ANOMALY":283.291,"EPHEMERIS_TYPE":0,"CLASSIFICATION_TYPE":"U","NORAD_CAT_ID":49314,"ELEMENT_SET_NO":999,"REV_AT_EPOCH":21308,"BSTAR":0.00022124,"MEAN_MOTION_DOT":1.02e-6,"MEAN_MOTION_DDOT":0},{"OBJECT_NAME":"ONEWEB-0389","OBJECT_ID":"2021-132A","EPOCH":"2026-03-08T03:03:52.257888","MEAN_MOTION":13.17648909,"ECCENTRICITY":0.000168,"INCLINATION":87.9149,"RA_OF_ASC_NODE":25.9369,"ARG_OF_PERICENTER":68.8921,"MEAN_ANOMALY":291.239,"EPHEMERIS_TYPE":0,"CLASSIFICATION_TYPE":"U","NORAD_CAT_ID":50469,"ELEMENT_SET_NO":999,"REV_AT_EPOCH":20477,"BSTAR":-8.5823e-5,"MEAN_MOTION_DOT":-2.0e-7,"MEAN_MOTION_DDOT":0},{"OBJECT_NAME":"ONEWEB-0390","OBJECT_ID":"2021-132B","EPOCH":"2026-03-08T03:06:16.151904","MEAN_MOTION":13.17647484,"ECCENTRICITY":0.000209,"INCLINATION":87.9151,"RA_OF_ASC_NODE":25.9369,"ARG_OF_PERICENTER":78.7137,"MEAN_ANOMALY":281.4229,"EPHEMERIS_TYPE":0,"CLASSIFICATION_TYPE":"U","NORAD_CAT_ID":50470,"ELEMENT_SET_NO":999,"REV_AT_EPOCH":20477,"BSTAR":9.2288e-5,"MEAN_MOTION_DOT":4.9e-7,"MEAN_MOTION_DDOT":0},{"OBJECT_NAME":"ONEWEB-0391","OBJECT_ID":"2021-132C","EPOCH":"2026-03-07T14:23:17.746080","MEAN_MOTION":13.17648986,"ECCENTRICITY":0.0002052,"INCLINATION":87.9147,"RA_OF_ASC_NODE":26.0516,"ARG_OF_PERICENTER":57.0897,"MEAN_ANOMALY":303.0431,"EPHEMERIS_TYPE":0,"CLASSIFICATION_TYPE":"U","NORAD_CAT_ID":50471,"ELEMENT_SET_NO":999,"REV_AT_EPOCH":20470,"BSTAR":8.7936e-5,"MEAN_MOTION_DOT":4.7e-7,"MEAN_MOTION_DDOT":0}]
