ONEWEB-0375             
1 49301U 21090Y   26067.11612223  .00000169  00000+0  38367-3 0  9993
2 49301  87.9174 294.6138 0001363  65.2468 294.8807 13.20772280217181
ONEWEB-0376             
1 49302U 21090Z   26067.12448889  .00000278  00000+0  66295-3 0  9992
2 49302  87.9243 325.0941 0001770  86.7274 273.4061 13.19726479213127
ONEWEB-0377             
1 49303U 21090AA  26067.10204458  .00000118  00000+0  25898-3 0  9990
2 49303  87.9170 294.6186 0001714  79.4771 280.6555 13.20770538217172
ONEWEB-0378             
1 49304U 21090AB  26067.12413278 -.00000051  00000+0 -15729-3 0  9995
2 49304  87.9163 294.6252 0001512  81.8446 278.2859 13.20770870216449
ONEWEB-0379             
1 49305U 21090AC  26067.10566890  .00000150  00000+0  36911-3 0  9997
2 49305  87.8988 309.8759 0001499  80.8562 279.2737 13.14503150214281
ONEWEB-0380             
1 49306U 21090AD  26067.12133098  .00000097  00000+0  21073-3 0  9993
2 49306  87.9231 325.1103 0001722  71.8719 288.2601 13.19726961213091
ONEWEB-0381             
1 49307U 21090AE  26067.09874593  .00000130  00000+0  28700-3 0  9994
2 49307  87.9171 294.6231 0001407  78.1654 281.9637 13.20769833216487
ONEWEB-0382             
1 49308U 21090AF  26067.08611630  .00000079  00000+0  16270-3 0  9996
2 49308  87.9172 294.6220 0001317  79.5096 280.6185 13.20773281216477
ONEWEB-0383             
1 49309U 21090AG  26067.09932137  .00000008  00000+0 -14014-4 0  9994
2 49309  87.8990 309.8632 0001443  81.5147 278.6146 13.14502375214313
ONEWEB-0384             
1 49310U 21090AH  26067.15326247  .00000011  00000+0 -44869-5 0  9998
2 49310  87.9177 294.6513 0001071  80.1636 279.9618 13.20807142216493
ONEWEB-0385             
1 49311U 21090AJ  26067.15400285 -.00000007  00000+0 -48813-4 0  9992
2 49311  87.9172 294.6128 0001449  80.1024 280.0273 13.20772524216463
ONEWEB-0386             
1 49312U 21090AK  26067.09559733  .00000131  00000+0  28974-3 0  9990
2 49312  87.9175 294.6093 0001346  82.9986 277.1300 13.20770576216475
ONEWEB-0387             
1 49313U 21090AL  26067.15556183  .00000024  00000+0  26953-4 0  9991
2 49313  87.9163 294.6345 0001567  77.2222 282.9087 13.20773746216487
ONEWEB-0388             
1 49314U 21090AM  26067.11658931  .00000102  00000+0  22124-3 0  9994
2 49314  87.9232 325.1075 0001569  76.8397 283.2910 13.19727219213089
ONEWEB-0389             
1 50469U 21132A   26067.12768817 -.00000020  00000+0 -85823-4 0  9997
2 50469  87.9149  25.9369 0001680  68.8921 291.2390 13.17648909204771
ONEWEB-0390             
1 50470U 21132B   26067.12935361  .00000049  00000+0  92288-4 0  9991
2 50470  87.9151  25.9369 0002090  78.7137 281.4229 13.17647484204770
ONEWEB-0391             
1 50471U 21132C   26066.59951095  .00000047  00000+0  87936-4 0  9996
2 50471  87.9147  26.0516 0002052  57.0897 303.0431 13.17648986204700
